[{"OBJECT_NAME":"STARLINK-2629","OBJECT_ID":"2021-044BA","EPOCH":"2026-03-09T23:39:19.239840","MEAN_MOTION":15.29350904,"ECCENTRICITY":0.00017417,"INCLINATION":53.1561,"RA_OF_ASC_NODE":73.734,"ARG_OF_PERICENTER":119.9773,"MEAN_ANOMALY":240.14,"EPHEMERIS_TYPE":0,"CLASSIFICATION_TYPE":"U","NORAD_CAT_ID":48686,"ELEMENT_SET_NO":999,"REV_AT_EPOCH":26440,"BSTAR":0.00012458907,"MEAN_MOTION_DOT":3.24e-5,"MEAN_MOTION_DDOT":0},{"OBJECT_NAME":"CZ-6A DEB","OBJECT_ID":"2022-151QV","EPOCH":"2026-03-09T04:36:08.895168","MEAN_MOTION":15.24642942,"ECCENTRICITY":0.00273347,"INCLINATION":98.639,"RA_OF_ASC_NODE":154.2763,"ARG_OF_PERICENTER":174.5721,"MEAN_ANOMALY":185.5815,"EPHEMERIS_TYPE":0,"CLASSIFICATION_TYPE":"U","NORAD_CAT_ID":54908,"ELEMENT_SET_NO":999,"REV_AT_EPOCH":17373,"BSTAR":0.0098290719,"MEAN_MOTION_DOT":0.00253193,"MEAN_MOTION_DDOT":0}]
